ONEWEB-0338             
1 49204U 21083U   26171.29864228  .00000089  00000+0  18633-3 0  9991
2 49204  87.9185 273.8284 0001727 105.3850 254.7474 13.20774186237220
ONEWEB-0339             
1 49205U 21083V   26171.40056374  .00000419  00000+0  11132-2 0  9993
2 49205  87.8955 319.5861 0001697 105.6678 254.4639 13.13470480231317
ONEWEB-0340             
1 49206U 21083W   26171.39621810  .00000105  00000+0  23342-3 0  9994
2 49206  87.9174 334.8166 0001977  91.0327 269.1031 13.18686061230395
ONEWEB-0341             
1 49207U 21083X   26171.40296330  .00000098  00000+0  21605-3 0  9993
2 49207  87.9167 334.8184 0002282 100.9579 259.1809 13.18686405230414
ONEWEB-0342             
1 49208U 21083Y   26171.30539015  .00000140  00000+0  31143-3 0  9999
2 49208  87.9195 273.8152 0001944 103.4902 256.6448 13.20771208237197
ONEWEB-0343             
1 49209U 21083Z   26171.41139681  .00000044  00000+0  78267-4 0  9999
2 49209  87.9166 334.8155 0001681 106.8678 253.2638 13.18685750230462
ONEWEB-0344             
1 49210U 21083AA  26171.39547015  .00000338  00000+0  89020-3 0  9996
2 49210  87.8946 319.6010 0002189 102.9713 257.1661 13.13472547231318
ONEWEB-0345             
1 49211U 21083AB  26171.38701168  .00000214  00000+0  55091-3 0  9991
2 49211  87.8963 319.5844 0002079 102.2277 257.9085 13.13470932231323
ONEWEB-0346             
1 49212U 21083AC  26171.40802294  .00000061  00000+0  12191-3 0  9991
2 49212  87.9162 334.8163 0002232  78.8876 281.2507 13.18685624230402
ONEWEB-0348             
1 49213U 21083AD  26171.29528829  .00000080  00000+0  16475-3 0  9998
2 49213  87.9198 273.8210 0002475  94.4112 265.7305 13.20771257237224
ONEWEB-0350             
1 49214U 21083AE  26171.40496384  .00000442  00000+0  11855-2 0  9990
2 49214  87.8961 319.5859 0002107  98.8601 261.2766 13.12942886231351
ONEWEB-0351             
1 49215U 21083AF  26171.36416638  .00000051  00000+0  92517-4 0  9992
2 49215  87.9198 273.8061 0002183 124.5886 235.5454 13.20770938237190
ONEWEB-0352             
1 49216U 21083AG  26171.45303889 -.00000055  00000+0 -18481-3 0  9999
2 49216  87.8956 319.5820 0001744 110.6854 249.4462 13.13471360231451
ONEWEB-0354             
1 49217U 21083AH  26171.31548477  .00000056  00000+0  10691-3 0  9993
2 49217  87.9198 273.8149 0002428  98.8527 261.2881 13.20773176237227
ONEWEB-0355             
1 49218U 21083AJ  26171.40578637  .00000414  00000+0  10995-2 0  9999
2 49218  87.8953 319.5924 0001938 105.3441 254.7902 13.13469826231321
ONEWEB-0357             
1 49219U 21083AK  26171.31211815  .00000134  00000+0  29793-3 0  9998
2 49219  87.9199 273.8098 0002014 106.4687 253.6668 13.20773123237227
ONEWEB-0332             
1 49279U 21090A   26171.33945998  .00000009  00000+0 -98850-5 0  9994
2 49279  87.8968 289.0805 0001704 102.1056 258.0265 13.14501800227998
ONEWEB-0347             
1 49280U 21090B   26171.30202316  .00000122  00000+0  26798-3 0  9998
2 49280  87.9195 273.8198 0001769 101.5168 258.6164 13.20771684231453
ONEWEB-0349             
1 49281U 21090C   26171.33400713  .00000049  00000+0  88853-4 0  9992
2 49281  87.9197 273.8141 0002032 101.0436 259.0926 13.20772591230246
ONEWEB-0353             
1 49282U 21090D   26171.33153862  .00000139  00000+0  33992-3 0  9996
2 49282  87.8970 289.0778 0001660 101.7909 258.3407 13.14503120227995
ONEWEB-0356             
1 49283U 21090E   26170.80201543  .00000029  00000+0  40275-4 0  9999
2 49283  87.9196 273.9133 0001982  77.1821 282.9533 13.20773323230178
ONEWEB-0358             
1 49284U 21090F   26171.36652475  .00000064  00000+0  12563-3 0  9993
2 49284  87.9199 273.8070 0002103  95.1067 265.0306 13.20238250230972
ONEWEB-0359             
1 49285U 21090G   26171.28349275  .00000050  00000+0  91862-4 0  9991
2 49285  87.9197 273.8173 0002271  98.3142 261.8249 13.20773439230940
ONEWEB-0360             
1 49286U 21090H   26171.34914391  .00000009  00000+0 -10620-4 0  9994
2 49286  87.9197 273.8104 0002093 102.6948 257.4419 13.20769981230262
ONEWEB-0361             
1 49287U 21090J   26171.33063720  .00000039  00000+0  64861-4 0  9993
2 49287  87.9197 273.8124 0002105  97.8204 262.3169 13.20771187230717
ONEWEB-0362             
1 49288U 21090K   26171.36153396  .00000008  00000+0 -13521-4 0  9990
2 49288  87.9174 304.3453 0001955 107.2146 252.9201 13.19724436227330
ONEWEB-0363             
1 49289U 21090L   26171.34578677  .00000015  00000+0  46418-5 0  9991
2 49289  87.9198 273.8098 0002001  90.9060 269.2303 13.20770852230724
ONEWEB-0364             
1 49290U 21090M   26171.30875242 -.00000048  00000+0 -14959-3 0  9998
2 49290  87.9197 273.8252 0002043 100.9236 259.2127 13.20772641231856
ONEWEB-0365             
1 49291U 21090N   26171.44683097 -.00000009  00000+0 -55290-4 0  9990
2 49291  87.9182 304.3168 0001821 102.7287 257.4050 13.19724906226854
ONEWEB-0366             
1 49292U 21090P   26171.32836741  .00000177  00000+0  44378-3 0  9992
2 49292  87.8967 289.0802 0001961 100.1651 259.9700 13.14502569227978
