OBJECT_NAME,OBJECT_ID,EPOCH,MEAN_MOTION,ECCENTRICITY,INCLINATION,RA_OF_ASC_NODE,ARG_OF_PERICENTER,MEAN_ANOMALY,EPHEMERIS_TYPE,CLASSIFICATION_TYPE,NORAD_CAT_ID,ELEMENT_SET_NO,REV_AT_EPOCH,BSTAR,MEAN_MOTION_DOT,MEAN_MOTION_DDOT
ONEWEB-0338,2021-083U,2026-06-20T07:10:02.692992,13.20774186,.0001727,87.9185,273.8284,105.3850,254.7474,0,U,49204,999,23722,.18633E-3,.89E-6,0
ONEWEB-0339,2021-083V,2026-06-20T09:36:48.707136,13.13470480,.0001697,87.8955,319.5861,105.6678,254.4639,0,U,49205,999,23131,.11132E-2,.419E-5,0
ONEWEB-0340,2021-083W,2026-06-20T09:30:33.243840,13.18686061,.0001977,87.9174,334.8166,91.0327,269.1031,0,U,49206,999,23039,.23342E-3,.105E-5,0
ONEWEB-0341,2021-083X,2026-06-20T09:40:16.029120,13.18686405,.0002282,87.9167,334.8184,100.9579,259.1809,0,U,49207,999,23041,.21605E-3,.98E-6,0
ONEWEB-0342,2021-083Y,2026-06-20T07:19:45.708960,13.20771208,.0001944,87.9195,273.8152,103.4902,256.6448,0,U,49208,999,23719,.31143E-3,.14E-5,0
ONEWEB-0343,2021-083Z,2026-06-20T09:52:24.684384,13.18685750,.0001681,87.9166,334.8155,106.8678,253.2638,0,U,49209,999,23046,.78267E-4,.44E-6,0
ONEWEB-0344,2021-083AA,2026-06-20T09:29:28.620960,13.13472547,.0002189,87.8946,319.6010,102.9713,257.1661,0,U,49210,999,23131,.8902E-3,.338E-5,0
ONEWEB-0345,2021-083AB,2026-06-20T09:17:17.809152,13.13470932,.0002079,87.8963,319.5844,102.2277,257.9085,0,U,49211,999,23132,.55091E-3,.214E-5,0
ONEWEB-0346,2021-083AC,2026-06-20T09:47:33.182016,13.18685624,.0002232,87.9162,334.8163,78.8876,281.2507,0,U,49212,999,23040,.12191E-3,.61E-6,0
ONEWEB-0348,2021-083AD,2026-06-20T07:05:12.908256,13.20771257,.0002475,87.9198,273.8210,94.4112,265.7305,0,U,49213,999,23722,.16475E-3,.8E-6,0
ONEWEB-0350,2021-083AE,2026-06-20T09:43:08.875776,13.12942886,.0002107,87.8961,319.5859,98.8601,261.2766,0,U,49214,999,23135,.11855E-2,.442E-5,0
ONEWEB-0351,2021-083AF,2026-06-20T08:44:23.975232,13.20770938,.0002183,87.9198,273.8061,124.5886,235.5454,0,U,49215,999,23719,.92517E-4,.51E-6,0
ONEWEB-0352,2021-083AG,2026-06-20T10:52:22.560096,13.13471360,.0001744,87.8956,319.5820,110.6854,249.4462,0,U,49216,999,23145,-.18481E-3,-.55E-6,0
ONEWEB-0354,2021-083AH,2026-06-20T07:34:17.884128,13.20773176,.0002428,87.9198,273.8149,98.8527,261.2881,0,U,49217,999,23722,.10691E-3,.56E-6,0
ONEWEB-0355,2021-083AJ,2026-06-20T09:44:19.942368,13.13469826,.0001938,87.8953,319.5924,105.3441,254.7902,0,U,49218,999,23132,.10995E-2,.414E-5,0
ONEWEB-0357,2021-083AK,2026-06-20T07:29:27.008160,13.20773123,.0002014,87.9199,273.8098,106.4687,253.6668,0,U,49219,999,23722,.29793E-3,.134E-5,0
ONEWEB-0332,2021-090A,2026-06-20T08:08:49.342272,13.14501800,.0001704,87.8968,289.0805,102.1056,258.0265,0,U,49279,999,22799,-.9885E-5,.9E-7,0
ONEWEB-0347,2021-090B,2026-06-20T07:14:54.801024,13.20771684,.0001769,87.9195,273.8198,101.5168,258.6164,0,U,49280,999,23145,.26798E-3,.122E-5,0
ONEWEB-0349,2021-090C,2026-06-20T08:00:58.216032,13.20772591,.0002032,87.9197,273.8141,101.0436,259.0926,0,U,49281,999,23024,.88853E-4,.49E-6,0
ONEWEB-0353,2021-090D,2026-06-20T07:57:24.936768,13.14503120,.000166,87.8970,289.0778,101.7909,258.3407,0,U,49282,999,22799,.33992E-3,.139E-5,0
ONEWEB-0356,2021-090E,2026-06-19T19:14:54.133152,13.20773323,.00019821,87.9196,273.9133,77.1821,282.9533,0,U,49283,999,23017,.40274623E-4,.29E-6,0
ONEWEB-0358,2021-090F,2026-06-20T08:47:47.738400,13.20238250,.0002103,87.9199,273.8070,95.1067,265.0306,0,U,49284,999,23097,.12563E-3,.64E-6,0
ONEWEB-0359,2021-090G,2026-06-20T06:48:13.773600,13.20773439,.0002271,87.9197,273.8173,98.3142,261.8249,0,U,49285,999,23094,.91862E-4,.5E-6,0
ONEWEB-0360,2021-090H,2026-06-20T08:22:46.033824,13.20769981,.0002093,87.9197,273.8104,102.6948,257.4419,0,U,49286,999,23026,-.1062E-4,.9E-7,0
ONEWEB-0361,2021-090J,2026-06-20T07:56:07.054080,13.20771187,.0002105,87.9197,273.8124,97.8204,262.3169,0,U,49287,999,23071,.64861E-4,.39E-6,0
ONEWEB-0362,2021-090K,2026-06-20T08:40:36.534144,13.19724436,.0001955,87.9174,304.3453,107.2146,252.9201,0,U,49288,999,22733,-.13521E-4,.8E-7,0
ONEWEB-0363,2021-090L,2026-06-20T08:17:55.976928,13.20770852,.0002001,87.9198,273.8098,90.9060,269.2303,0,U,49289,999,23072,.46418E-5,.15E-6,0
ONEWEB-0364,2021-090M,2026-06-20T07:24:36.209088,13.20772641,.0002043,87.9197,273.8252,100.9236,259.2127,0,U,49290,999,23185,-.14959E-3,-.48E-6,0
ONEWEB-0365,2021-090N,2026-06-20T10:43:26.195808,13.19724906,.0001821,87.9182,304.3168,102.7287,257.4050,0,U,49291,999,22685,-.5529E-4,-.9E-7,0
ONEWEB-0366,2021-090P,2026-06-20T07:52:50.944224,13.14502569,.0001961,87.8967,289.0802,100.1651,259.9700,0,U,49292,999,22797,.44378E-3,.177E-5,0
